STARLINK-31842          
1 59672U 24084U   26068.30748548 -.00000113  00000+0  54137-5 0  9998
2 59672  43.0059  40.5821 0001090 258.4725 101.6004 15.27578838104354
FLOCK 4G-10             
1 62670U 25009BP  26068.70827885  .00013952  00000+0  52624-3 0  9995
2 62670  97.3967 150.5883 0003469 341.4844  18.6269 15.27155944121340
